SL-16 R/B               
1 19120U 88039B   17004.84864672 -.00000143  00000-0 -45316-4 0  9991
2 19120  71.0159 310.0443 0019539  77.3030 283.0278 14.19163882483211
COSMOS 1953             
1 19210U 88050A   17005.15484015  .00000027  00000-0 -18679-6 0  9992
2 19210  82.5160 191.4269 0015091  96.7024 263.5920 15.05097001553315
SL-8 R/B                
1 19257U 88053B   17003.97138993 -.00000045  00000-0 -63961-5 0  9999
2 19257  74.0469 158.4300 0019373  89.9193  49.1819 14.37341069495175
COSMOS 1975             
1 19573U 88093A   17005.54519122  .00000276  00000-0  17858-4 0  9993
2 19573  82.5212 142.8202 0015786 129.8697 230.3921 15.04007340535361
SL-14 R/B               
1 19574U 88093B   17004.41879771  .00000098  00000-0  91326-5 0  9993
2 19574  82.5335 298.1688 0020302 298.8105 200.3160 14.83196964525179
SL-16 R/B               
1 19650U 88102B   17005.14959086  .00000167  00000-0  10906-3 0  9998
2 19650  70.9981 357.9175 0012061  67.9953 292.2450 14.15751141452918
INTERCOSMOS 24          
1 20261U 89080A   17005.50110607  .00000033  00000-0 -14836-6 0  9994
2 20261  82.5951 115.3560 1204868 111.9092 261.4351 12.55852903245548
SL-14 R/B               
1 20262U 89080C   17004.50651161  .00000067  00000-0  20097-4 0  9999
2 20262  82.5939 160.9280 1236493 269.7196  76.2505 12.48840971241280
DELTA 1 R/B             
1 20323U 89089B   17005.12873480  .00000040  00000-0  19742-4 0  9991
2 20323  97.0872 336.9134 0070596 232.7423 126.7322 14.48169985431123
DELTA 2 R/B(1)          
1 20453U 90008B   17005.45164576  .00002701  00000-0  15557-3 0  9998
2 20453  35.6272 106.0582 0292071 255.2739 101.5437 14.82690729424039
COSMOS 2058             
1 20465U 90010A   17005.17412781  .00000305  00000-0  23829-4 0  9997
2 20465  82.4888  44.5821 0017093 121.1827 239.1074 14.97398135460942
SL-14 R/B               
1 20466U 90010B   17004.83268434  .00000122  00000-0  12529-4 0  9996
2 20466  82.5028 165.4478 0021275 151.5298 208.7083 14.81260422453312
SL-14 R/B               
1 20511U 90018B   17004.41596206  .00000106  00000-0  10995-4 0  9997
2 20511  82.5243 106.6279 0016048 291.9856 114.3434 14.79919777447843
HST                     
1 20580U 90037B   17004.43893642  .00000600  00000-0  26140-4 0  9998
2 20580  28.4711   9.4283 0002639 206.6501 306.7487 15.08637881265539
SL-16 R/B               
1 20625U 90046B   17004.79305978 -.00000030  00000-0  90463-5 0  9995
2 20625  71.0001 132.0673 0014814 346.1715  13.9000 14.14614476374738
COSMOS 2084             
1 20663U 90055A   17004.50606205  .00000076  00000-0  24399-4 0  9996
2 20663  62.7927  54.3809 0137485  73.9568 287.6616 14.91445173435396
SL-6 R/B(2)             
1 20666U 90055D   17005.21006140  .00000051  00000-0  22192-4 0  9992
2 20666  62.7845 331.2590 0136460  93.1428 268.5289 14.91805261436868
SL-8 R/B                
1 20775U 90078B   17004.52990794  .00003260  00000-0  16061-3 0  9990
2 20775  82.9282 182.2465 0593010 125.9845 239.7846 14.29899845325372
SL-8 R/B                
1 21088U 91006B   17004.87459498 -.00000019  00000-0 -34436-4 0  9997
2 21088  82.9432 141.6458 0023489  59.5171  49.5513 13.77036004303129
OKEAN-3                 
1 21397U 91039A   17005.20216092  .00000261  00000-0  22885-4 0  9997
2 21397  82.5233 293.2089 0019492  64.3272 295.9958 14.92389490385472
COSMOS 2151             
1 21422U 91042A   17005.20676291  .00000227  00000-0  19935-4 0  9995
2 21422  82.4997  41.5388 0015765 116.2816 244.0025 14.91757474384203
SL-14 R/B               
1 21423U 91042B   17004.88549954  .00000067  00000-0  58612-5 0  9992
2 21423  82.4952 114.0258 0019041  67.5617 292.7610 14.79672563378434
ERS-1                   
1 21574U 91050A   17005.46604492  .00000110  00000-0  50801-4 0  9992
2 21574  98.4408 315.3850 0034200  81.1750 279.3307 14.37550077334213
ARIANE 40 R/B           
1 21610U 91050F   17005.18521302 -.00000013  00000-0  10153-4 0  9999
2 21610  98.6295  60.5508 0004198  77.7678 349.0457 14.40778149336648
INTERCOSMOS 25          
1 21819U 91086A   17004.89791007  .00000302  00000-0  50932-4 0  9996
2 21819  82.5532 161.2512 1526451  74.3820 302.0006 12.04418518 92628
SL-14 R/B               
1 21820U 91086B   17005.51995496  .00000125  00000-0  25338-4 0  9991
2 21820  82.5597 214.4164 1576581 254.7560  87.4403 11.93252884 87380
SL-8 R/B                
1 21876U 92008B   17004.81943488  .00000000  00000-0 -15734-4 0  9995
2 21876  82.9261 238.6149 0035644 128.9479 279.4191 13.75597348248929
SL-8 R/B                
1 21938U 92020B   17004.50258257  .00000075  00000-0  62711-4 0  9995
2 21938  82.9313 121.9948 0027895 289.3639 119.6835 13.75259065240794
SL-16 R/B               
1 22220U 92076B   17005.47893911 -.00000200  00000-0 -76407-4 0  9999
2 22220  71.0004  41.7412 0012317 172.0829 289.0659 14.16410248247737
SL-16 R/B               
1 22285U 92093B   17004.72414304 -.00000228  00000-0 -93082-4 0  9999
2 22285  71.0192 195.1842 0004147 344.7011  15.3986 14.15002049239414
COSMOS 2228             
1 22286U 92094A   17004.86909555  .00000285  00000-0  28598-4 0  9994
2 22286  82.5207 168.0722 0019409 306.0740  53.8679 14.87588187298212
SL-16 R/B               
1 22566U 93016B   17004.54731798 -.00000299  00000-0 -12979-3 0  9999
2 22566  71.0078  50.4161 0009695   8.0768 352.0509 14.14942414228124
COSMOS 2242             
1 22626U 93024A   17004.55166945  .00000254  00000-0  25262-4 0  9991
2 22626  82.5206 196.0703 0017943 306.8348  53.1223 14.87589116281822
SL-16 R/B               
1 22803U 93059B   17004.56482091 -.00000215  00000-0 -83383-4 0  9997
2 22803  70.9892 234.2235 0019660 274.3259  85.5618 14.16761072205103
ARIANE 40 R/B           
1 22830U 93061H   17005.13090029 -.00000075  00000-0 -10757-4 0  9999
2 22830  98.8885  16.7653 0011632  47.5268 353.9631 14.31413488214921
COSMOS 2278             
1 23087U 94023A   17004.47472801  .00000174  00000-0  11677-3 0  9990
2 23087  71.0527 341.1383 0007032 111.7090 248.4782 14.13728025171353
SL-16 R/B               
1 23088U 94023B   17005.21636414 -.00000256  00000-0 -10823-3 0  9991
2 23088  71.0004 264.1063 0004703 315.6140  44.4604 14.14651925172494
SL-16 R/B               
1 23343U 94074B   17004.15576795 -.00000029  00000-0  34699-5 0  9994
2 23343  98.1739  39.4208 0005855 232.3347 168.5544 14.76684845192623
SL-16 R/B               
1 23405U 94077B   17004.85902168  .00000255  00000-0  15561-3 0  9995
2 23405  70.9809 198.7931 0004203 235.1701 124.9027 14.15188750142401
ERS-2                   
1 23560U 95021A   17004.48670477  .00001623  00000-0  79172-4 0  9990
2 23560  98.5389 335.0613 0004643 127.7793 232.3860 15.20084962150517
ARIANE 40+ R/B          
1 23561U 95021B   17004.60777809  .00000036  00000-0  27380-4 0  9993
2 23561  98.7858   2.0889 0007486  30.4513 107.2991 14.37788482137745
SL-16 R/B               
1 23705U 95058B   17004.45547125 -.00000125  00000-0 -40119-4 0  9998
2 23705  71.0208  12.5516 0013144 198.5261 161.5385 14.15096679 94024
SL-16 R/B               
1 24298U 96051B   17005.48333867  .00000081  00000-0  69849-4 0  9990
2 24298  70.8452  44.9834 0012414  64.5537 295.6866 14.12469220 48844
ORBVIEW 2 (SEASTAR)     
1 24883U 97037A   17005.54113854  .00000043  00000-0  31521-4 0  9998
2 24883  98.5326 116.4702 0001835 201.6240 158.4867 14.33363704 28602
SL-16 R/B               
1 25400U 98043G   17004.86961923  .00000008  00000-0  21272-4 0  9997
2 25400  98.4678 318.4942 0010845  57.2012 303.0212 14.25400489961803
SL-16 R/B               
1 25407U 98045B   17004.51495773  .00000168  00000-0  10968-3 0  9999
2 25407  71.0099  25.3833 0005483 100.1840 259.9902 14.15757261953017
ISS (ZARYA)             
1 25544U 98067A   17005.62303206  .00003110  00000-0  54466-4 0  9999
2 25544  51.6431 128.7052 0007358  54.2523  24.2450 15.53997518 36471
SL-8 R/B                
1 25723U 99022C   17005.26192346  .00008073  00000-0  13937-3 0  9991
2 25723  48.4179 314.6127 0010796 329.4801  30.5514 15.51786598981177
CZ-4B R/B               
1 25732U 99025C   17005.57328014 -.00000025  00000-0  10193-4 0  9993
2 25732  98.9857   5.3966 0037136 192.7368 273.9101 14.17623471913598
OKEAN-O                 
1 25860U 99039A   17005.49284233  .00000097  00000-0  21493-4 0  9998
2 25860  98.1690 348.3101 0000900  69.7632 290.3674 14.76438431939821
SL-16 R/B               
1 25861U 99039B   17005.12540635  .00000055  00000-0  14976-4 0  9992
2 25861  98.0830 335.5563 0014465 244.7774 173.5631 14.78378901941689
TERRA                   
1 25994U 99068A   17005.38941383  .00000198  00000-0  54034-4 0  9991
2 25994  98.2029  82.7491 0000745  94.8689 265.2597 14.57120218906969
SL-14 R/B               
1 26874U 01032B   17004.54599617  .00049389 -25095-6  12251-3 0  9996
2 26874  82.4542  59.2394 0005987 138.0487 222.1248 15.95690468867584
ENVISAT                 
1 27386U 02009A   17005.55347239 -.00000004  00000-0  12465-4 0  9995
2 27386  98.2555  57.4239 0001214  80.9402 279.1927 14.37885615777706
IDEFIX & ARIANE 42P R/B 
1 27422U 02021B   17003.64310971 -.00000056  00000-0 -60102-5 0  9991
2 27422  98.2274  13.0447 0012540   9.8529 350.2898 14.29252759763170
AQUA                    
1 27424U 02022A   17003.90690269  .00000145  00000-0  42327-4 0  9999
2 27424  98.2213 307.5283 0000357  57.1698 350.4528 14.57111430780307
CZ-4B R/B               
1 27432U 02024C   17004.85341194 -.00000003  00000-0  21473-4 0  9998
2 27432  98.9659 337.6801 0051174 133.8031 256.5119 14.14033115755718
MIDORI II (ADEOS-II)    
1 27597U 02056A   17004.85037535  .00000072  00000-0  46388-4 0  9993
2 27597  98.3479 341.5474 0002126  88.8450 271.2975 14.27259159732127
H-2A R/B                
1 27601U 02056E   17005.21547833  .00000034  00000-0  27625-4 0  9998
2 27601  98.3979  78.4852 0073104  59.1965 316.4204 14.31756623734481
